{
  "type": "FeatureCollection",
  "features": [
    {
      "type": "Feature",
      "properties": {
        "norad_id": 66632,
        "name": "STARLINK-35973",
        "group": "last-30-days",
        "lat": 3.6966643003003212,
        "lon": -43.45164279389399,
        "alt_km": 447.25861016193903,
        "timestamp": "2025-12-22T20:43:44.564077+00:00",
        "meta_object_name": "STARLINK-35973",
        "meta_object_id": "2025-271R",
        "meta_epoch": "2025-12-22T10:37:25.210560",
        "meta_mean_motion": 15.39645085,
        "meta_eccentricity": 0.00012907,
        "meta_inclination": 53.1603,
        "meta_ra_of_asc_node": 141.3094,
        "meta_arg_of_pericenter": 96.7669,
        "meta_mean_anomaly": 263.3483,
        "meta_ephemeris_type": 0,
        "meta_classification_type": "U",
        "meta_norad_cat_id": 66632,
        "meta_element_set_no": 999,
        "meta_rev_at_epoch": 566,
        "meta_bstar": 0.0011234239,
        "meta_mean_motion_dot": 0.00044838,
        "meta_mean_motion_ddot": 0,
        "tle_line1": "1 66632U 25271R   25356.44265290  .00044838  00000+0  11234-2 0  9992",
        "tle_line2": "2 66632  53.1603 141.3094 0001290  96.7669 263.3483 15.39645085  5662"
      },
      "geometry": {
        "type": "Point",
        "coordinates": [
          -43.45164279389399,
          3.6966643003003212
        ]
      }
    },
    {
      "type": "Feature",
      "properties": {
        "norad_id": 66633,
        "name": "STARLINK-35948",
        "group": "last-30-days",
        "lat": 2.2173327586335048,
        "lon": -42.34341950537381,
        "alt_km": 447.5524491525748,
        "timestamp": "2025-12-22T20:43:44.564087+00:00",
        "meta_object_name": "STARLINK-35948",
        "meta_object_id": "2025-271S",
        "meta_epoch": "2025-12-22T10:36:56.668320",
        "meta_mean_motion": 15.39651518,
        "meta_eccentricity": 0.00010307,
        "meta_inclination": 53.1611,
        "meta_ra_of_asc_node": 141.3062,
        "meta_arg_of_pericenter": 88.3222,
        "meta_mean_anomaly": 271.7901,
        "meta_ephemeris_type": 0,
        "meta_classification_type": "U",
        "meta_norad_cat_id": 66633,
        "meta_element_set_no": 999,
        "meta_rev_at_epoch": 570,
        "meta_bstar": 0.0016551005,
        "meta_mean_motion_dot": 0.00066451,
        "meta_mean_motion_ddot": 0,
        "tle_line1": "1 66633U 25271S   25356.44232255  .00066451  00000+0  16551-2 0  9990",
        "tle_line2": "2 66633  53.1611 141.3062 0001030  88.3222 271.7901 15.39651518  5702"
      },
      "geometry": {
        "type": "Point",
        "coordinates": [
          -42.34341950537381,
          2.2173327586335048
        ]
      }
    },
    {
      "type": "Feature",
      "properties": {
        "norad_id": 66634,
        "name": "STARLINK-35967",
        "group": "last-30-days",
        "lat": -18.30152250745088,
        "lon": -26.37698237312642,
        "alt_km": 450.50813601810023,
        "timestamp": "2025-12-22T20:43:44.564097+00:00",
        "meta_object_name": "STARLINK-35967",
        "meta_object_id": "2025-271T",
        "meta_epoch": "2025-12-22T13:37:11.172288",
        "meta_mean_motion": 15.39721117,
        "meta_eccentricity": 0.00012683,
        "meta_inclination": 53.1586,
        "meta_ra_of_asc_node": 140.6615,
        "meta_arg_of_pericenter": 48.6991,
        "meta_mean_anomaly": 311.4123,
        "meta_ephemeris_type": 0,
        "meta_classification_type": "U",
        "meta_norad_cat_id": 66634,
        "meta_element_set_no": 999,
        "meta_rev_at_epoch": 568,
        "meta_bstar": 0.0018663033,
        "meta_mean_motion_dot": 0.00075242,
        "meta_mean_motion_ddot": 0,
        "tle_line1": "1 66634U 25271T   25356.56749042  .00075242  00000+0  18663-2 0  9995",
        "tle_line2": "2 66634  53.1586 140.6615 0001268  48.6991 311.4123 15.39721117  5683"
      },
      "geometry": {
        "type": "Point",
        "coordinates": [
          -26.37698237312642,
          -18.30152250745088
        ]
      }
    },
    {
      "type": "Feature",
      "properties": {
        "norad_id": 66635,
        "name": "STARLINK-35955",
        "group": "last-30-days",
        "lat": -50.430151440679694,
        "lon": 24.284725193218915,
        "alt_km": 452.2021443547692,
        "timestamp": "2025-12-22T20:43:44.564107+00:00",
        "meta_object_name": "STARLINK-35955",
        "meta_object_id": "2025-271U",
        "meta_epoch": "2025-12-22T10:16:53.044608",
        "meta_mean_motion": 15.3968141,
        "meta_eccentricity": 8.521e-05,
        "meta_inclination": 53.1613,
        "meta_ra_of_asc_node": 141.2182,
        "meta_arg_of_pericenter": 84.7276,
        "meta_mean_anomaly": 275.3826,
        "meta_ephemeris_type": 0,
        "meta_classification_type": "U",
        "meta_norad_cat_id": 66635,
        "meta_element_set_no": 999,
        "meta_rev_at_epoch": 570,
        "meta_bstar": 0.001628569,
        "meta_mean_motion_dot": 0.00065435,
        "meta_mean_motion_ddot": 0,
        "tle_line1": "1 66635U 25271U   25356.42839172  .00065435  00000+0  16286-2 0  9997",
        "tle_line2": "2 66635  53.1613 141.2182 0000852  84.7276 275.3826 15.39681410  5708"
      },
      "geometry": {
        "type": "Point",
        "coordinates": [
          24.284725193218915,
          -50.430151440679694
        ]
      }
    },
    {
      "type": "Feature",
      "properties": {
        "norad_id": 66636,
        "name": "STARLINK-35968",
        "group": "last-30-days",
        "lat": -36.95532056576278,
        "lon": -6.448833533033414,
        "alt_km": 451.67875808936424,
        "timestamp": "2025-12-22T20:43:44.564117+00:00",
        "meta_object_name": "STARLINK-35968",
        "meta_object_id": "2025-271V",
        "meta_epoch": "2025-12-22T10:23:34.339776",
        "meta_mean_motion": 15.3966493,
        "meta_eccentricity": 8.53e-05,
        "meta_inclination": 53.161,
        "meta_ra_of_asc_node": 141.2473,
        "meta_arg_of_pericenter": 76.7542,
        "meta_mean_anomaly": 283.3558,
        "meta_ephemeris_type": 0,
        "meta_classification_type": "U",
        "meta_norad_cat_id": 66636,
        "meta_element_set_no": 999,
        "meta_rev_at_epoch": 570,
        "meta_bstar": 0.0015476689,
        "meta_mean_motion_dot": 0.00062103,
        "meta_mean_motion_ddot": 0,
        "tle_line1": "1 66636U 25271V   25356.43303634  .00062103  00000+0  15477-2 0  9998",
        "tle_line2": "2 66636  53.1610 141.2473 0000853  76.7542 283.3558 15.39664930  5706"
      },
      "geometry": {
        "type": "Point",
        "coordinates": [
          -6.448833533033414,
          -36.95532056576278
        ]
      }
    },
    {
      "type": "Feature",
      "properties": {
        "norad_id": 66637,
        "name": "STARLINK-35953",
        "group": "last-30-days",
        "lat": -51.98061228577051,
        "lon": 65.60476546709371,
        "alt_km": 452.1952655095374,
        "timestamp": "2025-12-22T20:43:44.564129+00:00",
        "meta_object_name": "STARLINK-35953",
        "meta_object_id": "2025-271W",
        "meta_epoch": "2025-12-22T13:17:09.229920",
        "meta_mean_motion": 15.39665657,
        "meta_eccentricity": 6.346e-05,
        "meta_inclination": 53.1615,
        "meta_ra_of_asc_node": 140.5771,
        "meta_arg_of_pericenter": 77.8796,
        "meta_mean_anomaly": 282.228,
        "meta_ephemeris_type": 0,
        "meta_classification_type": "U",
        "meta_norad_cat_id": 66637,
        "meta_element_set_no": 999,
        "meta_rev_at_epoch": 572,
        "meta_bstar": 0.0013698347,
        "meta_mean_motion_dot": 0.0005487,
        "meta_mean_motion_ddot": 0,
        "tle_line1": "1 66637U 25271W   25356.55357905  .00054870  00000+0  13698-2 0  9997",
        "tle_line2": "2 66637  53.1615 140.5771 0000634  77.8796 282.2280 15.39665657  5724"
      },
      "geometry": {
        "type": "Point",
        "coordinates": [
          65.60476546709371,
          -51.98061228577051
        ]
      }
    },
    {
      "type": "Feature",
      "properties": {
        "norad_id": 66638,
        "name": "STARLINK-35972",
        "group": "last-30-days",
        "lat": -22.526152401221935,
        "lon": 120.8971042886037,
        "alt_km": 450.9840840697034,
        "timestamp": "2025-12-22T20:43:44.564139+00:00",
        "meta_object_name": "STARLINK-35972",
        "meta_object_id": "2025-271X",
        "meta_epoch": "2025-12-22T14:00:01.999872",
        "meta_mean_motion": 15.39600906,
        "meta_eccentricity": 0.00010654,
        "meta_inclination": 53.1608,
        "meta_ra_of_asc_node": 140.334,
        "meta_arg_of_pericenter": 95.5446,
        "meta_mean_anomaly": 121.1917,
        "meta_ephemeris_type": 0,
        "meta_classification_type": "U",
        "meta_norad_cat_id": 66638,
        "meta_element_set_no": 999,
        "meta_rev_at_epoch": 582,
        "meta_bstar": 0.00026540974,
        "meta_mean_motion_dot": 0.00010224,
        "meta_mean_motion_ddot": 0,
        "tle_line1": "1 66638U 25271X   25356.58335648  .00010224  00000+0  26541-3 0  9998",
        "tle_line2": "2 66638  53.1608 140.3340 0001065  95.5446 121.1917 15.39600906  5820"
      },
      "geometry": {
        "type": "Point",
        "coordinates": [
          120.8971042886037,
          -22.526152401221935
        ]
      }
    }
  ]
}